{
  "version": 1,
  "fetchedAt": "2026-06-21T12:32:46.387Z",
  "source": "celestrak-gp",
  "counts": {
    "station": 24,
    "satellite": 520,
    "debris": 250
  },
  "objects": [
    {
      "id": "42758",
      "name": "HXMT (HUIYAN)",
      "noradId": 42758,
      "line1": "1 42758U 17034A   26172.21258884  .00002165  00000+0  11348-3 0  9990",
      "line2": "2 42758  43.0126 160.6256 0031150 173.0127 187.1161 15.18495415498279",
      "category": "satellite"
    },
    {
      "id": "39452",
      "name": "SWARM A",
      "noradId": 39452,
      "line1": "1 39452U 13067B   26171.38119780  .00008694  00000+0  14908-3 0  9995",
      "line2": "2 39452  87.3318  55.0548 0003059  96.4779 263.6830 15.51006351706740",
      "category": "satellite"
    },
    {
      "id": "39453",
      "name": "SWARM C",
      "noradId": 39453,
      "line1": "1 39453U 13067C   26171.38108794  .00008759  00000+0  15021-3 0  9998",
      "line2": "2 39453  87.3318  53.6359 0003064  96.5296 263.6314 15.51004755706705",
      "category": "satellite"
    },
    {
      "id": "40020",
      "name": "BRITE-CA1 (TORONTO)",
      "noradId": 40020,
      "line1": "1 40020U 14033L   26171.36706416  .00000559  00000+0  91945-4 0  9997",
      "line2": "2 40020  97.9744 300.2364 0077215 266.6473  92.5899 14.72680489642689",
      "category": "satellite"
    },
    {
      "id": "40059",
      "name": "OCO 2",
      "noradId": 40059,
      "line1": "1 40059U 14035A   26171.38294918  .00000282  00000+0  72614-4 0  9997",
      "line2": "2 40059  98.2017 112.6273 0001513  84.7645 275.3726 14.57113403636515",
      "category": "satellite"
    },
    {
      "id": "40119",
      "name": "BRITE-PL2 (HEWELIUSZ)",
      "noradId": 40119,
      "line1": "1 40119U 14049B   26171.31895785  .00001722  00000+0  16422-3 0  9995",
      "line2": "2 40119  97.9101 283.3430 0015385  99.1118 261.1844 14.94603402641918",
      "category": "satellite"
    },
    {
      "id": "40482",
      "name": "MMS 1",
      "noradId": 40482,
      "line1": "1 40482U 15011A   26171.50003471 -.00000547  00000+0  00000+0 0  9998",
      "line2": "2 40482  72.1541 348.7586 8320937 167.4629 276.5732  0.28304487  1399",
      "category": "satellite"
    },
    {
      "id": "40483",
      "name": "MMS 2",
      "noradId": 40483,
      "line1": "1 40483U 15011B   26171.50003471 -.00000547  00000+0  00000+0 0  9999",
      "line2": "2 40483  72.1550 348.7610 8322367 167.4660 276.5842  0.28300138  1393",
      "category": "satellite"
    },
    {
      "id": "40484",
      "name": "MMS 3",
      "noradId": 40484,
      "line1": "1 40484U 15011C   26171.50003471 -.00000547  00000+0  00000+0 0  9990",
      "line2": "2 40484  72.1584 348.7655 8320989 167.4588 276.5750  0.28298826  1395",
      "category": "satellite"
    },
    {
      "id": "40485",
      "name": "MMS 4",
      "noradId": 40485,
      "line1": "1 40485U 15011D   26171.50003471 -.00000547  00000+0  00000+0 0  9991",
      "line2": "2 40485  72.1513 348.7612 8320747 167.4717 276.5466  0.28305080  1392",
      "category": "satellite"
    },
    {
      "id": "40930",
      "name": "ASTROSAT",
      "noradId": 40930,
      "line1": "1 40930U 15052A   26171.05152111  .00001334  00000+0  80735-4 0  9999",
      "line2": "2 40930   5.9956 134.7258 0007591  74.7193 285.3774 14.82511277580259",
      "category": "satellite"
    },
    {
      "id": "41173",
      "name": "DAMPE",
      "noradId": 41173,
      "line1": "1 41173U 15078A   26172.15584620  .00000672  00000+0  25141-4 0  9997",
      "line2": "2 41173  97.4560 177.6426 0013678  65.0865 295.1796 15.30792709585153",
      "category": "satellite"
    },
    {
      "id": "41784",
      "name": "PISAT",
      "noradId": 41784,
      "line1": "1 41784U 16059B   26171.41355948  .00000622  00000+0  11350-3 0  9993",
      "line2": "2 41784  97.8178 171.7277 0028650 192.2677 167.7834 14.68987845520219",
      "category": "satellite"
    },
    {
      "id": "42831",
      "name": "FLYING LAPTOP",
      "noradId": 42831,
      "line1": "1 42831U 17042G   26172.18495697  .00002634  00000+0  20916-3 0  9994",
      "line2": "2 42831  97.4710 327.5638 0019758 108.9160 251.4208 15.01167120487057",
      "category": "satellite"
    },
    {
      "id": "43194",
      "name": "ZHANGHENG 1-01 (CSES-1)",
      "noradId": 43194,
      "line1": "1 43194U 18015C   26172.21829946  .00005765  00000+0  26342-3 0  9997",
      "line2": "2 43194  97.6879 337.9558 0017132 251.2807 108.6569 15.20853778465251",
      "category": "satellite"
    },
    {
      "id": "46495",
      "name": "SALSAT",
      "noradId": 46495,
      "line1": "1 46495U 20068K   26170.95810387  .00006379  00000+0  22355-3 0  9995",
      "line2": "2 46495  97.8854 174.1914 0007892 296.5001  63.5428 15.29832652315782",
      "category": "satellite"
    },
    {
      "id": "49954",
      "name": "IXPE",
      "noradId": 49954,
      "line1": "1 49954U 21121A   26171.41668980  .00008579  00000+0  45370-3 0  9997",
      "line2": "2 49954   0.2296 293.4932 0007192 124.1849 157.3401 15.10273055  5456",
      "category": "satellite"
    },
    {
      "id": "69123",
      "name": "SMILE",
      "noradId": 69123,
      "line1": "1 69123U 26109A   26158.38327019 -.00000041  00000+0 -36778-3 0  9994",
      "line2": "2 69123  69.9787 209.3069 3310191 288.5544  45.7342  7.54049028  2480",
      "category": "satellite"
    }
  ]
}