OBJECT_NAME,OBJECT_ID,EPOCH,MEAN_MOTION,ECCENTRICITY,INCLINATION,RA_OF_ASC_NODE,ARG_OF_PERICENTER,MEAN_ANOMALY,EPHEMERIS_TYPE,CLASSIFICATION_TYPE,NORAD_CAT_ID,ELEMENT_SET_NO,REV_AT_EPOCH,BSTAR,MEAN_MOTION_DOT,MEAN_MOTION_DDOT
SWARM A,2013-067B,2026-06-20T09:08:55.489920,15.51006351,.0003059,87.3318,55.0548,96.4779,263.6830,0,U,39452,999,70674,.14908E-3,.8694E-4,0
SWARM C,2013-067C,2026-06-20T09:08:45.998016,15.51004755,.0003064,87.3318,53.6359,96.5296,263.6314,0,U,39453,999,70670,.15021E-3,.8759E-4,0
BRITE-CA1 (TORONTO),2014-033L,2026-06-20T08:48:34.343424,14.72680489,.0077215,97.9744,300.2364,266.6473,92.5899,0,U,40020,999,64268,.91945E-4,.559E-5,0
OCO 2,2014-035A,2026-06-20T09:11:26.809152,14.57113403,.0001513,98.2017,112.6273,84.7645,275.3726,0,U,40059,999,63651,.72614E-4,.282E-5,0
BRITE-PL2 (HEWELIUSZ),2014-049B,2026-06-20T07:39:17.958240,14.94603402,.0015385,97.9101,283.3430,99.1118,261.1844,0,U,40119,999,64191,.16422E-3,.1722E-4,0
MMS 1,2015-011A,2026-06-20T12:00:02.998944,0.28304487,.8320937,72.1541,348.7586,167.4629,276.5732,0,U,40482,999,139,0,-.547E-5,0
MMS 2,2015-011B,2026-06-20T12:00:02.998944,0.28300138,.8322367,72.1550,348.7610,167.4660,276.5842,0,U,40483,999,139,0,-.547E-5,0
MMS 3,2015-011C,2026-06-20T12:00:02.998944,0.28298826,.8320989,72.1584,348.7655,167.4588,276.5750,0,U,40484,999,139,0,-.547E-5,0
MMS 4,2015-011D,2026-06-20T12:00:02.998944,0.28305080,.8320747,72.1513,348.7612,167.4717,276.5466,0,U,40485,999,139,0,-.547E-5,0
ASTROSAT,2015-052A,2026-06-20T01:14:11.423904,14.82511277,.00075913,5.9956,134.7258,74.7193,285.3774,0,U,40930,999,58025,.80734889E-4,.1334E-4,0
DAMPE,2015-078A,2026-06-21T03:44:25.111680,15.30792709,.0013678,97.4560,177.6426,65.0865,295.1796,0,U,41173,999,58515,.25141E-4,.672E-5,0
PISAT,2016-059B,2026-06-20T09:55:31.539072,14.68987845,.002865,97.8178,171.7277,192.2677,167.7834,0,U,41784,999,52021,.1135E-3,.622E-5,0
HXMT (HUIYAN),2017-034A,2026-06-21T05:06:07.675776,15.18495415,.003115,43.0126,160.6256,173.0127,187.1161,0,U,42758,999,49827,.11348E-3,.2165E-4,0
FLYING LAPTOP,2017-042G,2026-06-21T04:26:20.282208,15.01167120,.0019758,97.4710,327.5638,108.9160,251.4208,0,U,42831,999,48705,.20916E-3,.2634E-4,0
ZHANGHENG 1-01 (CSES-1),2018-015C,2026-06-21T05:14:21.073344,15.20853778,.0017132,97.6879,337.9558,251.2807,108.6569,0,U,43194,999,46525,.26342E-3,.5765E-4,0
SALSAT,2020-068K,2026-06-19T22:59:40.174368,15.29832652,.00078926,97.8854,174.1914,296.5001,63.5428,0,U,46495,999,31578,.22355472E-3,.6379E-4,0
IXPE,2021-121A,2026-06-20T10:00:01.998720,15.10273055,.0007192,0.2296,293.4932,124.1849,157.3401,0,U,49954,999,545,.4537E-3,.8579E-4,0
SMILE,2026-109A,2026-06-07T09:11:54.544416,7.54049028,.3310191,69.9787,209.3069,288.5544,45.7342,0,U,69123,999,248,-.36778E-3,-.41E-6,0
